[
  {
    "OBJECT_NAME": "STARLINK-30232",
    "OBJECT_ID": "23096P",
    "EPOCH": "2025-11-11T08:00:03.000384",
    "MEAN_MOTION": 15.32513636,
    "ECCENTRICITY": 0.0027382,
    "INCLINATION": 42.9943,
    "RA_OF_ASC_NODE": 121.058,
    "ARG_OF_PERICENTER": 289.2196,
    "MEAN_ANOMALY": 305.2331,
    "EPHEMERIS_TYPE": 0,
    "CLASSIFICATION_TYPE": "U",
    "NORAD_CAT_ID": 57303,
    "ELEMENT_SET_NO": 999,
    "REV_AT_EPOCH": 566,
    "BSTAR": 0.0051447,
    "MEAN_MOTION_DOT": 0.0017033,
    "MEAN_MOTION_DDOT": 0.0,
    "TLE_LINE1": "1 57303U 23096P   25315.33336806  .00170330  00000+0  51447-2 0  9992",
    "TLE_LINE2": "2 57303  42.9943 121.0580 0027382 289.2196 305.2331 15.32513636  5666",
    "COMMENT": "Grouped by shell and plane from TLE"
  },
  {
    "OBJECT_NAME": "STARLINK-30209",
    "OBJECT_ID": "23096T",
    "EPOCH": "2025-11-11T03:54:12.912480",
    "MEAN_MOTION": 15.33761099,
    "ECCENTRICITY": 0.0029207,
    "INCLINATION": 42.9867,
    "RA_OF_ASC_NODE": 121.1549,
    "ARG_OF_PERICENTER": 287.7864,
    "MEAN_ANOMALY": 71.9804,
    "EPHEMERIS_TYPE": 0,
    "CLASSIFICATION_TYPE": "U",
    "NORAD_CAT_ID": 57307,
    "ELEMENT_SET_NO": 999,
    "REV_AT_EPOCH": 12919,
    "BSTAR": 0.005110099999999999,
    "MEAN_MOTION_DOT": 0.00176438,
    "MEAN_MOTION_DDOT": 0.0,
    "TLE_LINE1": "1 57307U 23096T   25315.16264945  .00176438  00000+0  51101-2 0  9993",
    "TLE_LINE2": "2 57307  42.9867 121.1549 0029207 287.7864  71.9804 15.33761099129190",
    "COMMENT": "Grouped by shell and plane from TLE"
  },
  {
    "OBJECT_NAME": "STARLINK-30175",
    "OBJECT_ID": "23096X",
    "EPOCH": "2025-11-11T08:00:03.000384",
    "MEAN_MOTION": 15.32809686,
    "ECCENTRICITY": 0.0029045,
    "INCLINATION": 42.9887,
    "RA_OF_ASC_NODE": 120.618,
    "ARG_OF_PERICENTER": 286.3661,
    "MEAN_ANOMALY": 120.4144,
    "EPHEMERIS_TYPE": 0,
    "CLASSIFICATION_TYPE": "U",
    "NORAD_CAT_ID": 57311,
    "ELEMENT_SET_NO": 999,
    "REV_AT_EPOCH": 587,
    "BSTAR": 0.0053078000000000005,
    "MEAN_MOTION_DOT": 0.00177821,
    "MEAN_MOTION_DDOT": 0.0,
    "TLE_LINE1": "1 57311U 23096X   25315.33336806  .00177821  00000+0  53078-2 0  9995",
    "TLE_LINE2": "2 57311  42.9887 120.6180 0029045 286.3661 120.4144 15.32809686  5871",
    "COMMENT": "Grouped by shell and plane from TLE"
  },
  {
    "OBJECT_NAME": "STARLINK-31269",
    "OBJECT_ID": "24017U",
    "EPOCH": "2025-11-10T18:44:47.802912",
    "MEAN_MOTION": 15.302042,
    "ECCENTRICITY": 0.0001385,
    "INCLINATION": 53.1643,
    "RA_OF_ASC_NODE": 126.7683,
    "ARG_OF_PERICENTER": 76.3336,
    "MEAN_ANOMALY": 283.7819,
    "EPHEMERIS_TYPE": 0,
    "CLASSIFICATION_TYPE": "U",
    "NORAD_CAT_ID": 58844,
    "ELEMENT_SET_NO": 999,
    "REV_AT_EPOCH": 10056,
    "BSTAR": 0.00015057000000000002,
    "MEAN_MOTION_DOT": 4.103e-05,
    "MEAN_MOTION_DDOT": 0.0,
    "TLE_LINE1": "1 58844U 24017U   25314.78110883  .00004103  00000+0  15057-3 0  9992",
    "TLE_LINE2": "2 58844  53.1643 126.7683 0001385  76.3336 283.7819 15.30204200100568",
    "COMMENT": "Grouped by shell and plane from TLE"
  },
  {
    "OBJECT_NAME": "STARLINK-31264",
    "OBJECT_ID": "24017V",
    "EPOCH": "2025-11-11T04:30:14.146272",
    "MEAN_MOTION": 15.30165715,
    "ECCENTRICITY": 0.0001347,
    "INCLINATION": 53.1612,
    "RA_OF_ASC_NODE": 124.3393,
    "ARG_OF_PERICENTER": 77.7794,
    "MEAN_ANOMALY": 282.3358,
    "EPHEMERIS_TYPE": 0,
    "CLASSIFICATION_TYPE": "U",
    "NORAD_CAT_ID": 58845,
    "ELEMENT_SET_NO": 999,
    "REV_AT_EPOCH": 10063,
    "BSTAR": 0.0001978,
    "MEAN_MOTION_DOT": 5.497e-05,
    "MEAN_MOTION_DDOT": 0.0,
    "TLE_LINE1": "1 58845U 24017V   25315.18766373  .00005497  00000+0  19780-3 0  9993",
    "TLE_LINE2": "2 58845  53.1612 124.3393 0001347  77.7794 282.3358 15.30165715100636",
    "COMMENT": "Grouped by shell and plane from TLE"
  },
  {
    "OBJECT_NAME": "STARLINK-31262",
    "OBJECT_ID": "24017X",
    "EPOCH": "2025-11-10T20:50:36.410208",
    "MEAN_MOTION": 15.30119929,
    "ECCENTRICITY": 0.0001074,
    "INCLINATION": 53.1612,
    "RA_OF_ASC_NODE": 125.8966,
    "ARG_OF_PERICENTER": 126.771,
    "MEAN_ANOMALY": 233.3389,
    "EPHEMERIS_TYPE": 0,
    "CLASSIFICATION_TYPE": "U",
    "NORAD_CAT_ID": 58847,
    "ELEMENT_SET_NO": 999,
    "REV_AT_EPOCH": 10058,
    "BSTAR": 0.0004907900000000001,
    "MEAN_MOTION_DOT": 0.00014169,
    "MEAN_MOTION_DDOT": 0.0,
    "TLE_LINE1": "1 58847U 24017X   25314.86847697  .00014169  00000+0  49079-3 0  9998",
    "TLE_LINE2": "2 58847  53.1612 125.8966 0001074 126.7710 233.3389 15.30119929100580",
    "COMMENT": "Grouped by shell and plane from TLE"
  },
  {
    "OBJECT_NAME": "STARLINK-31296",
    "OBJECT_ID": "24020D",
    "EPOCH": "2025-11-11T04:58:26.058720",
    "MEAN_MOTION": 15.30188446,
    "ECCENTRICITY": 0.0001185,
    "INCLINATION": 53.1622,
    "RA_OF_ASC_NODE": 126.9931,
    "ARG_OF_PERICENTER": 78.5983,
    "MEAN_ANOMALY": 281.5151,
    "EPHEMERIS_TYPE": 0,
    "CLASSIFICATION_TYPE": "U",
    "NORAD_CAT_ID": 58879,
    "ELEMENT_SET_NO": 999,
    "REV_AT_EPOCH": 10029,
    "BSTAR": 0.0,
    "MEAN_MOTION_DOT": -4.67e-06,
    "MEAN_MOTION_DDOT": 0.0,
    "TLE_LINE1": "1 58879U 24020D   25315.20724605 -.00000467  00000+0 -36319-5 0  9992",
    "TLE_LINE2": "2 58879  53.1622 126.9931 0001185  78.5983 281.5151 15.30188446100299",
    "COMMENT": "Grouped by shell and plane from TLE"
  },
  {
    "OBJECT_NAME": "STARLINK-31315",
    "OBJECT_ID": "24020J",
    "EPOCH": "2025-11-11T04:50:48.189696",
    "MEAN_MOTION": 15.301998,
    "ECCENTRICITY": 0.0001245,
    "INCLINATION": 53.1598,
    "RA_OF_ASC_NODE": 126.8306,
    "ARG_OF_PERICENTER": 91.6689,
    "MEAN_ANOMALY": 268.4454,
    "EPHEMERIS_TYPE": 0,
    "CLASSIFICATION_TYPE": "U",
    "NORAD_CAT_ID": 58884,
    "ELEMENT_SET_NO": 999,
    "REV_AT_EPOCH": 10029,
    "BSTAR": 9.413200000000001e-05,
    "MEAN_MOTION_DOT": 2.43e-05,
    "MEAN_MOTION_DDOT": 0.0,
    "TLE_LINE1": "1 58884U 24020J   25315.20194664  .00002430  00000+0  94132-4 0  9990",
    "TLE_LINE2": "2 58884  53.1598 126.8306 0001245  91.6689 268.4454 15.30199800100294",
    "COMMENT": "Grouped by shell and plane from TLE"
  },
  {
    "OBJECT_NAME": "STARLINK-31373",
    "OBJECT_ID": "24031A",
    "EPOCH": "2025-11-10T19:00:40.832064",
    "MEAN_MOTION": 15.30200968,
    "ECCENTRICITY": 0.0001209,
    "INCLINATION": 53.1586,
    "RA_OF_ASC_NODE": 128.6659,
    "ARG_OF_PERICENTER": 100.842,
    "MEAN_ANOMALY": 259.2717,
    "EPHEMERIS_TYPE": 0,
    "CLASSIFICATION_TYPE": "U",
    "NORAD_CAT_ID": 58965,
    "ELEMENT_SET_NO": 999,
    "REV_AT_EPOCH": 9833,
    "BSTAR": 2.2717e-06,
    "MEAN_MOTION_DOT": -2.92e-06,
    "MEAN_MOTION_DDOT": 0.0,
    "TLE_LINE1": "1 58965U 24031A   25314.79213926 -.00000292  00000+0  22717-5 0  9994",
    "TLE_LINE2": "2 58965  53.1586 128.6659 0001209 100.8420 259.2717 15.30200968 98337",
    "COMMENT": "Grouped by shell and plane from TLE"
  },
  {
    "OBJECT_NAME": "STARLINK-31449",
    "OBJECT_ID": "24031B",
    "EPOCH": "2025-11-11T04:21:57.933792",
    "MEAN_MOTION": 15.30200484,
    "ECCENTRICITY": 0.0001689,
    "INCLINATION": 53.1596,
    "RA_OF_ASC_NODE": 126.8332,
    "ARG_OF_PERICENTER": 88.783,
    "MEAN_ANOMALY": 271.3365,
    "EPHEMERIS_TYPE": 0,
    "CLASSIFICATION_TYPE": "U",
    "NORAD_CAT_ID": 58966,
    "ELEMENT_SET_NO": 999,
    "REV_AT_EPOCH": 9839,
    "BSTAR": 0.0,
    "MEAN_MOTION_DOT": -1.108e-05,
    "MEAN_MOTION_DDOT": 0.0,
    "TLE_LINE1": "1 58966U 24031B   25315.18192053 -.00001108  00000+0 -25288-4 0  9999",
    "TLE_LINE2": "2 58966  53.1596 126.8332 0001689  88.7830 271.3365 15.30200484 98391",
    "COMMENT": "Grouped by shell and plane from TLE"
  },
  {
    "OBJECT_NAME": "STARLINK-31314",
    "OBJECT_ID": "24031C",
    "EPOCH": "2025-11-11T04:31:04.762848",
    "MEAN_MOTION": 15.30198225,
    "ECCENTRICITY": 0.0002071,
    "INCLINATION": 53.1574,
    "RA_OF_ASC_NODE": 126.8707,
    "ARG_OF_PERICENTER": 80.3137,
    "MEAN_ANOMALY": 279.8097,
    "EPHEMERIS_TYPE": 0,
    "CLASSIFICATION_TYPE": "U",
    "NORAD_CAT_ID": 58967,
    "ELEMENT_SET_NO": 999,
    "REV_AT_EPOCH": 9839,
    "BSTAR": 1.8338e-05,
    "MEAN_MOTION_DOT": 1.83e-06,
    "MEAN_MOTION_DDOT": 0.0,
    "TLE_LINE1": "1 58967U 24031C   25315.18824957  .00000183  00000+0  18338-4 0  9993",
    "TLE_LINE2": "2 58967  53.1574 126.8707 0002071  80.3137 279.8097 15.30198225 98392",
    "COMMENT": "Grouped by shell and plane from TLE"
  },
  {
    "OBJECT_NAME": "STARLINK-31335",
    "OBJECT_ID": "24031E",
    "EPOCH": "2025-11-10T12:05:42.631296",
    "MEAN_MOTION": 15.30207396,
    "ECCENTRICITY": 0.000137,
    "INCLINATION": 53.16,
    "RA_OF_ASC_NODE": 127.583,
    "ARG_OF_PERICENTER": 91.5626,
    "MEAN_ANOMALY": 268.5532,
    "EPHEMERIS_TYPE": 0,
    "CLASSIFICATION_TYPE": "U",
    "NORAD_CAT_ID": 58969,
    "ELEMENT_SET_NO": 999,
    "REV_AT_EPOCH": 9832,
    "BSTAR": 1.537e-05,
    "MEAN_MOTION_DOT": 9.6e-07,
    "MEAN_MOTION_DDOT": 0.0,
    "TLE_LINE1": "1 58969U 24031E   25314.50396564  .00000096  00000+0  15370-4 0  9994",
    "TLE_LINE2": "2 58969  53.1600 127.5830 0001370  91.5626 268.5532 15.30207396 98329",
    "COMMENT": "Grouped by shell and plane from TLE"
  },
  {
    "OBJECT_NAME": "STARLINK-31368",
    "OBJECT_ID": "24031F",
    "EPOCH": "2025-11-11T04:29:33.433728",
    "MEAN_MOTION": 15.30200498,
    "ECCENTRICITY": 0.0001122,
    "INCLINATION": 53.1598,
    "RA_OF_ASC_NODE": 126.8718,
    "ARG_OF_PERICENTER": 90.885,
    "MEAN_ANOMALY": 269.2279,
    "EPHEMERIS_TYPE": 0,
    "CLASSIFICATION_TYPE": "U",
    "NORAD_CAT_ID": 58970,
    "ELEMENT_SET_NO": 999,
    "REV_AT_EPOCH": 9839,
    "BSTAR": 6.863300000000001e-06,
    "MEAN_MOTION_DOT": -1.56e-06,
    "MEAN_MOTION_DDOT": 0.0,
    "TLE_LINE1": "1 58970U 24031F   25315.18719252 -.00000156  00000+0  68633-5 0  9993",
    "TLE_LINE2": "2 58970  53.1598 126.8718 0001122  90.8850 269.2279 15.30200498 98399",
    "COMMENT": "Grouped by shell and plane from TLE"
  }
]